{
  "type": "FeatureCollection",
  "features": [
    {
      "type": "Feature",
      "properties": {
        "norad_id": 66738,
        "name": "FLOCK 4H-35",
        "group": "last-30-days",
        "lat": 32.619522421859074,
        "lon": 62.08377979695496,
        "alt_km": 510.2174531366527,
        "timestamp": "2025-12-21T05:44:50.290953+00:00",
        "meta_object_name": "FLOCK 4H-35",
        "meta_object_id": "2025-276CA",
        "meta_epoch": "2025-12-20T15:21:57.258720",
        "meta_mean_motion": 15.1817486,
        "meta_eccentricity": 0.00027132,
        "meta_inclination": 97.4409,
        "meta_ra_of_asc_node": 66.2926,
        "meta_arg_of_pericenter": 146.7993,
        "meta_mean_anomaly": 213.3412,
        "meta_ephemeris_type": 0,
        "meta_classification_type": "U",
        "meta_norad_cat_id": 66738,
        "meta_element_set_no": 999,
        "meta_rev_at_epoch": 261,
        "meta_bstar": -0.00061954312,
        "meta_mean_motion_dot": -0.00012695,
        "meta_mean_motion_ddot": 0,
        "tle_line1": "1 66738U 25276CA  25354.64024605 -.00012695  00000+0 -61954-3 0  9990",
        "tle_line2": "2 66738  97.4409  66.2926 0002713 146.7993 213.3412 15.18174860  2614"
      },
      "geometry": {
        "type": "Point",
        "coordinates": [
          62.08377979695496,
          32.619522421859074
        ]
      }
    },
    {
      "type": "Feature",
      "properties": {
        "norad_id": 66739,
        "name": "FLOCK 4H-36",
        "group": "last-30-days",
        "lat": 12.395797729569479,
        "lon": 65.24133422414795,
        "alt_km": 514.8339039802213,
        "timestamp": "2025-12-21T05:44:50.290963+00:00",
        "meta_object_name": "FLOCK 4H-36",
        "meta_object_id": "2025-276CB",
        "meta_epoch": "2025-12-20T18:37:04.368000",
        "meta_mean_motion": 15.17966202,
        "meta_eccentricity": 0.00022234,
        "meta_inclination": 97.446,
        "meta_ra_of_asc_node": 66.4323,
        "meta_arg_of_pericenter": 190.9802,
        "meta_mean_anomaly": 169.1384,
        "meta_ephemeris_type": 0,
        "meta_classification_type": "U",
        "meta_norad_cat_id": 66739,
        "meta_element_set_no": 999,
        "meta_rev_at_epoch": 334,
        "meta_bstar": 0.00031540846,
        "meta_mean_motion_dot": 6.341e-05,
        "meta_mean_motion_ddot": 0,
        "tle_line1": "1 66739U 25276CB  25354.77574500  .00006341  00000+0  31541-3 0  9997",
        "tle_line2": "2 66739  97.4460  66.4323 0002223 190.9802 169.1384 15.17966202  3346"
      },
      "geometry": {
        "type": "Point",
        "coordinates": [
          65.24133422414795,
          12.395797729569479
        ]
      }
    },
    {
      "type": "Feature",
      "properties": {
        "norad_id": 66740,
        "name": "TRANSPORTER-15 CC",
        "group": "last-30-days",
        "lat": -11.807385492229301,
        "lon": 68.43590109843305,
        "alt_km": 517.5822049489052,
        "timestamp": "2025-12-21T05:44:50.290975+00:00",
        "meta_object_name": "TRANSPORTER-15 CC",
        "meta_object_id": "2025-276CC",
        "meta_epoch": "2025-12-20T18:43:23.101536",
        "meta_mean_motion": 15.17678791,
        "meta_eccentricity": 0.00020142,
        "meta_inclination": 97.4421,
        "meta_ra_of_asc_node": 66.4186,
        "meta_arg_of_pericenter": 249.0766,
        "meta_mean_anomaly": 111.0252,
        "meta_ephemeris_type": 0,
        "meta_classification_type": "U",
        "meta_norad_cat_id": 66740,
        "meta_element_set_no": 999,
        "meta_rev_at_epoch": 334,
        "meta_bstar": 0.00031409268,
        "meta_mean_motion_dot": 6.262e-05,
        "meta_mean_motion_ddot": 0,
        "tle_line1": "1 66740U 25276CC  25354.78012849  .00006262  00000+0  31409-3 0  9998",
        "tle_line2": "2 66740  97.4421  66.4186 0002014 249.0766 111.0252 15.17678791  3348"
      },
      "geometry": {
        "type": "Point",
        "coordinates": [
          68.43590109843305,
          -11.807385492229301
        ]
      }
    },
    {
      "type": "Feature",
      "properties": {
        "norad_id": 66741,
        "name": "TRANSPORTER-15 CD",
        "group": "last-30-days",
        "lat": -22.37231210769034,
        "lon": 69.94269371204668,
        "alt_km": 522.8308905255599,
        "timestamp": "2025-12-21T05:44:50.290986+00:00",
        "meta_object_name": "TRANSPORTER-15 CD",
        "meta_object_id": "2025-276CD",
        "meta_epoch": "2025-12-20T15:35:26.593440",
        "meta_mean_motion": 15.16370519,
        "meta_eccentricity": 0.00149164,
        "meta_inclination": 97.4418,
        "meta_ra_of_asc_node": 66.2803,
        "meta_arg_of_pericenter": 254.9889,
        "meta_mean_anomaly": 104.9694,
        "meta_ephemeris_type": 0,
        "meta_classification_type": "U",
        "meta_norad_cat_id": 66741,
        "meta_element_set_no": 999,
        "meta_rev_at_epoch": 332,
        "meta_bstar": -0.021786228,
        "meta_mean_motion_dot": -0.00401721,
        "meta_mean_motion_ddot": 0,
        "tle_line1": "1 66741U 25276CD  25354.64961335 -.00401721  00000+0 -21786-1 0  9993",
        "tle_line2": "2 66741  97.4418  66.2803 0014916 254.9889 104.9694 15.16370519  3329"
      },
      "geometry": {
        "type": "Point",
        "coordinates": [
          69.94269371204668,
          -22.37231210769034
        ]
      }
    },
    {
      "type": "Feature",
      "properties": {
        "norad_id": 66742,
        "name": "TRANSPORTER-15 CE",
        "group": "last-30-days",
        "lat": -8.741292179376307,
        "lon": 68.01252366536431,
        "alt_km": 517.908599350566,
        "timestamp": "2025-12-21T05:44:50.290998+00:00",
        "meta_object_name": "TRANSPORTER-15 CE",
        "meta_object_id": "2025-276CE",
        "meta_epoch": "2025-12-20T18:42:34.070400",
        "meta_mean_motion": 15.17675656,
        "meta_eccentricity": 0.00014452,
        "meta_inclination": 97.4414,
        "meta_ra_of_asc_node": 66.409,
        "meta_arg_of_pericenter": 197.3986,
        "meta_mean_anomaly": 162.7199,
        "meta_ephemeris_type": 0,
        "meta_classification_type": "U",
        "meta_norad_cat_id": 66742,
        "meta_element_set_no": 999,
        "meta_rev_at_epoch": 334,
        "meta_bstar": 0.00026922868,
        "meta_mean_motion_dot": 5.357e-05,
        "meta_mean_motion_ddot": 0,
        "tle_line1": "1 66742U 25276CE  25354.77956100  .00005357  00000+0  26923-3 0  9995",
        "tle_line2": "2 66742  97.4414  66.4090 0001445 197.3986 162.7199 15.17675656  3342"
      },
      "geometry": {
        "type": "Point",
        "coordinates": [
          68.01252366536431,
          -8.741292179376307
        ]
      }
    },
    {
      "type": "Feature",
      "properties": {
        "norad_id": 66743,
        "name": "TRANSPORTER-15 CF",
        "group": "last-30-days",
        "lat": -26.89023839672951,
        "lon": 70.65355687993917,
        "alt_km": 519.2157914009431,
        "timestamp": "2025-12-21T05:44:50.291009+00:00",
        "meta_object_name": "TRANSPORTER-15 CF",
        "meta_object_id": "2025-276CF",
        "meta_epoch": "2025-12-20T14:02:27.208032",
        "meta_mean_motion": 15.17478854,
        "meta_eccentricity": 4.42e-05,
        "meta_inclination": 97.4415,
        "meta_ra_of_asc_node": 66.2101,
        "meta_arg_of_pericenter": 253.2504,
        "meta_mean_anomaly": 106.8681,
        "meta_ephemeris_type": 0,
        "meta_classification_type": "U",
        "meta_norad_cat_id": 66743,
        "meta_element_set_no": 999,
        "meta_rev_at_epoch": 331,
        "meta_bstar": 0.00028859,
        "meta_mean_motion_dot": 5.715e-05,
        "meta_mean_motion_ddot": 0,
        "tle_line1": "1 66743U 25276CF  25354.58503713  .00005715  00000+0  28859-3 0  9991",
        "tle_line2": "2 66743  97.4415  66.2101 0000442 253.2504 106.8681 15.17478854  3312"
      },
      "geometry": {
        "type": "Point",
        "coordinates": [
          70.65355687993917,
          -26.89023839672951
        ]
      }
    },
    {
      "type": "Feature",
      "properties": {
        "norad_id": 66744,
        "name": "TRANSPORTER-15 CG",
        "group": "last-30-days",
        "lat": -33.713677705157686,
        "lon": 71.86349662539266,
        "alt_km": 519.8724412544616,
        "timestamp": "2025-12-21T05:44:50.291023+00:00",
        "meta_object_name": "TRANSPORTER-15 CG",
        "meta_object_id": "2025-276CG",
        "meta_epoch": "2025-12-20T14:04:10.309152",
        "meta_mean_motion": 15.17311588,
        "meta_eccentricity": 0.0001515,
        "meta_inclination": 97.4424,
        "meta_ra_of_asc_node": 66.2178,
        "meta_arg_of_pericenter": 256.8671,
        "meta_mean_anomaly": 103.2393,
        "meta_ephemeris_type": 0,
        "meta_classification_type": "U",
        "meta_norad_cat_id": 66744,
        "meta_element_set_no": 999,
        "meta_rev_at_epoch": 331,
        "meta_bstar": 0.00027211,
        "meta_mean_motion_dot": 5.359e-05,
        "meta_mean_motion_ddot": 0,
        "tle_line1": "1 66744U 25276CG  25354.58623043  .00005359  00000+0  27211-3 0  9996",
        "tle_line2": "2 66744  97.4424  66.2178 0001515 256.8671 103.2393 15.17311588  3314"
      },
      "geometry": {
        "type": "Point",
        "coordinates": [
          71.86349662539266,
          -33.713677705157686
        ]
      }
    }
  ]
}